STARLINK-37222          
1 68663U 26077B   26166.88606433  .00013682  00000+0  42542-3 0  9999
2 68663  97.2844  38.1037 0001702  91.0910 269.0528 15.33440335 10203
STARLINK-37153          
1 68664U 26077C   26166.88878450  .00010067  00000+0  31378-3 0  9999
2 68664  97.2845  38.0988 0001608  91.3478 268.7949 15.33439556 10202
STARLINK-37171          
1 68665U 26077D   26166.88334544  .00014660  00000+0  45570-3 0  9993
2 68665  97.2847  38.1041 0001484  92.9423 267.1990 15.33434444 10205
STARLINK-37109          
1 68666U 26077E   26166.88064268  .00009840  00000+0  30696-3 0  9994
2 68666  97.2848  38.1108 0001436  93.1373 267.0034 15.33419136 10204
STARLINK-36295          
1 68667U 26077F   26166.61688426  .00021043  00000+0  65226-3 0  9990
2 68667  97.2841  37.8568 0001920  91.5365 268.6098 15.33446938 10167
STARLINK-37221          
1 68668U 26077G   26166.92140902  .00012560  00000+0  39068-3 0  9996
2 68668  97.2841  38.2064 0001733  93.8314 266.3127 15.33448940 10214
STARLINK-37302          
1 68669U 26077H   26166.61144773  .00001854  00000+0  59752-4 0  9990
2 68669  97.2854  37.8645 0001616  91.7180 268.4248 15.33441016 10165
STARLINK-37298          
1 68670U 26077J   26166.61416491  .00021208  00000+0  65731-3 0  9999
2 68670  97.2848  37.8615 0001787  91.6015 268.5433 15.33448193 10162
STARLINK-37224          
1 68671U 26077K   26166.93500611  .00009586  00000+0  29890-3 0  9994
2 68671  97.2850  38.1885 0001528  91.7171 268.4247 15.33441075 10216
STARLINK-37296          
1 68672U 26077L   26166.60601198  .00018615  00000+0  57760-3 0  9991
2 68672  97.2847  37.8695 0001632  87.7707 272.3723 15.33438942 10160
STARLINK-37316          
1 68673U 26077M   26166.60329020  .00018084  00000+0  56105-3 0  9995
2 68673  97.2845  37.8779 0002228  95.4732 264.6765 15.33448466 10160
STARLINK-36672          
1 68674U 26077N   26166.60057005  .00005880  00000+0  18434-3 0  9990
2 68674  97.2850  37.8763 0001626  90.5250 269.6179 15.33442836 10161
STARLINK-36669          
1 68675U 26077P   26166.59785008  .00021986  00000+0  68125-3 0  9997
2 68675  97.2845  37.8831 0001785  83.1212 277.0234 15.33449722 10160
STARLINK-37312          
1 68676U 26077Q   26166.91053370  .00014573  00000+0  45278-3 0  9992
2 68676  97.2871  38.2233 0001467  94.4323 265.7087 15.33450666 10211
STARLINK-36168          
1 68677U 26077R   26166.91869198  .00016888  00000+0  52425-3 0  9999
2 68677  97.2843  38.2096 0002105  87.3050 272.8434 15.33444373 10219
STARLINK-37122          
1 68678U 26077S   26166.65495039  .00015863  00000+0  49252-3 0  9996
2 68678  97.2841  37.9572 0002099  97.3780 262.7701 15.33452023 10177
STARLINK-37310          
1 68679U 26077T   26166.91325160  .00009839  00000+0  30663-3 0  9995
2 68679  97.2844  38.2152 0001112  80.3420 279.7948 15.33449651 10216
STARLINK-37306          
1 68680U 26077U   26166.90508963  .00009605  00000+0  29937-3 0  9993
2 68680  97.2870  38.2307 0001368  98.5432 261.5965 15.33456498 10211
STARLINK-37307          
1 68681U 26077V   26166.90781438  .00011705  00000+0  36430-3 0  9994
2 68681  97.2851  38.2245 0001467  87.0453 273.0958 15.33446320 10211
STARLINK-37300          
1 68682U 26077W   26166.63319834  .00024151  00000+0  74787-3 0  9998
2 68682  97.2845  37.9889 0001985  95.5382 264.6087 15.33450022 10173
STARLINK-37304          
1 68683U 26077X   26166.89694004  .00012472  00000+0  38802-3 0  9993
2 68683  97.2858  38.2389 0001486  94.3612 265.7800 15.33444793 10214
STARLINK-37287          
1 68684U 26077Y   26166.89965720  .00012104  00000+0  37662-3 0  9995
2 68684  97.2860  38.2371 0001452  75.2101 284.9303 15.33446753 10212
STARLINK-36278          
1 68685U 26077Z   26166.91668981 -.02575408  00000+0 -27716-1 0  9990
2 68685  97.2840  40.6680 0001511  93.9806 289.5962 15.67181849  6054
STARLINK-37213          
1 68686U 26077AA  26166.90237370  .00016158  00000+0  50152-3 0  9994
2 68686  97.2849  38.2286 0001708  89.5524 270.5915 15.33460117 10217
STARLINK-37358          
1 68699U 26081A   26166.64254783  .00023167  00000+0  69412-3 0  9998
2 68699  53.1603 298.8494 0001119  83.5885 276.5245 15.34424794  9745
STARLINK-37334          
1 68700U 26081B   26166.90100565  .00026334  00000+0  78799-3 0  9995
2 68700  53.1606 297.6173 0001257  60.9051 299.2077 15.34391830  9782
STARLINK-36955          
1 68701U 26081C   26166.63836163  .00030836  00000+0  91922-3 0  9991
2 68701  53.1602 298.8219 0001585  55.4323 304.6829 15.34427219  9741
STARLINK-36275          
1 68702U 26081D   26166.63624560  .00052256  00000+0  15447-2 0  9995
2 68702  53.1608 298.8184 0001510  81.1264 278.9910 15.34446367  9746
STARLINK-36271          
1 68703U 26081E   26166.63414717  .00018483  00000+0  55704-3 0  9992
2 68703  53.1612 298.7979 0001213  79.9079 280.2061 15.34386563  9746
STARLINK-37356          
1 68704U 26081F   26166.63204519  .00036569  00000+0  10877-2 0  9996
2 68704  53.1606 298.7817 0001448  75.8394 284.2770 15.34413748  9743
