OBJECT_NAME,OBJECT_ID,EPOCH,MEAN_MOTION,ECCENTRICITY,INCLINATION,RA_OF_ASC_NODE,ARG_OF_PERICENTER,MEAN_ANOMALY,EPHEMERIS_TYPE,CLASSIFICATION_TYPE,NORAD_CAT_ID,ELEMENT_SET_NO,REV_AT_EPOCH,BSTAR,MEAN_MOTION_DOT,MEAN_MOTION_DDOT
STARLINK-37222,2026-077B,2026-06-15T21:15:55.958112,15.33440335,.00017025,97.2844,38.1037,91.0910,269.0528,0,U,68663,999,1020,.42541796E-3,.13682E-3,0
STARLINK-37153,2026-077C,2026-06-15T21:19:50.980800,15.33439556,.00016088,97.2845,38.0988,91.3478,268.7949,0,U,68664,999,1020,.31378028E-3,.10067E-3,0
STARLINK-37171,2026-077D,2026-06-15T21:12:01.046016,15.33434444,.00014845,97.2847,38.1041,92.9423,267.1990,0,U,68665,999,1020,.45570079E-3,.1466E-3,0
STARLINK-37109,2026-077E,2026-06-15T21:08:07.527552,15.33419136,.00014369,97.2848,38.1108,93.1373,267.0034,0,U,68666,999,1020,.30695679E-3,.984E-4,0
STARLINK-36295,2026-077F,2026-06-15T14:48:18.800064,15.33446938,.00019201,97.2841,37.8568,91.5365,268.6098,0,U,68667,999,1016,.65225929E-3,.21043E-3,0
STARLINK-37221,2026-077G,2026-06-15T22:06:49.739328,15.33448940,.0001733,97.2841,38.2064,93.8314,266.3127,0,U,68668,999,1021,.39067837E-3,.1256E-3,0
STARLINK-37302,2026-077H,2026-06-15T14:40:29.083872,15.33441016,.00016164,97.2854,37.8645,91.7180,268.4248,0,U,68669,999,1016,.59752452E-4,.1854E-4,0
STARLINK-37298,2026-077J,2026-06-15T14:44:23.848224,15.33448193,.00017879,97.2848,37.8615,91.6015,268.5433,0,U,68670,999,1016,.65730977E-3,.21208E-3,0
STARLINK-37224,2026-077K,2026-06-15T22:26:24.527904,15.33441075,.0001528,97.2850,38.1885,91.7171,268.4247,0,U,68671,999,1021,.29889715E-3,.9586E-4,0
STARLINK-37296,2026-077L,2026-06-15T14:32:39.435072,15.33438942,.00016321,97.2847,37.8695,87.7707,272.3723,0,U,68672,999,1016,.57760376E-3,.18615E-3,0
STARLINK-37316,2026-077M,2026-06-15T14:28:44.273280,15.33448466,.00022283,97.2845,37.8779,95.4732,264.6765,0,U,68673,999,1016,.56104979E-3,.18084E-3,0
STARLINK-36672,2026-077N,2026-06-15T14:24:49.252320,15.33442836,.0001626,97.2850,37.8763,90.5250,269.6179,0,U,68674,999,1016,.1843402E-3,.588E-4,0
STARLINK-36669,2026-077P,2026-06-15T14:20:54.246912,15.33449722,.00017852,97.2845,37.8831,83.1212,277.0234,0,U,68675,999,1016,.68124811E-3,.21986E-3,0
STARLINK-37312,2026-077Q,2026-06-15T21:51:10.111680,15.33450666,.00014671,97.2871,38.2233,94.4323,265.7087,0,U,68676,999,1021,.45277976E-3,.14573E-3,0
STARLINK-36168,2026-077R,2026-06-15T22:02:54.987072,15.33444373,.00021057,97.2843,38.2096,87.3050,272.8434,0,U,68677,999,1021,.52425306E-3,.16888E-3,0
STARLINK-37122,2026-077S,2026-06-15T15:43:07.713696,15.33452023,.00020999,97.2841,37.9572,97.3780,262.7701,0,U,68678,999,1017,.49251511E-3,.15863E-3,0
STARLINK-37310,2026-077T,2026-06-15T21:55:04.938240,15.33449651,.00011125,97.2844,38.2152,80.3420,279.7948,0,U,68679,999,1021,.30663308E-3,.9839E-4,0
STARLINK-37306,2026-077U,2026-06-15T21:43:19.744032,15.33456498,.00013687,97.2870,38.2307,98.5432,261.5965,0,U,68680,999,1021,.29936839E-3,.9605E-4,0
STARLINK-37307,2026-077V,2026-06-15T21:47:15.162432,15.33446320,.00014673,97.2851,38.2245,87.0453,273.0958,0,U,68681,999,1021,.36429707E-3,.11705E-3,0
STARLINK-37300,2026-077W,2026-06-15T15:11:48.336576,15.33450022,.00019859,97.2845,37.9889,95.5382,264.6087,0,U,68682,999,1017,.74786888E-3,.24151E-3,0
STARLINK-37304,2026-077X,2026-06-15T21:31:35.619456,15.33444793,.00014865,97.2858,38.2389,94.3612,265.7800,0,U,68683,999,1021,.38802181E-3,.12472E-3,0
STARLINK-37287,2026-077Y,2026-06-15T21:35:30.382080,15.33446753,.00014521,97.2860,38.2371,75.2101,284.9303,0,U,68684,999,1021,.37662275E-3,.12104E-3,0
STARLINK-36278,2026-077Z,2026-06-15T22:00:01.999584,15.67181849,.00015114,97.2840,40.6680,93.9806,289.5962,0,U,68685,999,605,-.27715512E-1,-.2575408E-1,0
STARLINK-37213,2026-077AA,2026-06-15T21:39:25.087680,15.33460117,.00017082,97.2849,38.2286,89.5524,270.5915,0,U,68686,999,1021,.50151798E-3,.16158E-3,0
STARLINK-37358,2026-081A,2026-06-15T15:25:16.132512,15.34424794,.00011194,53.1603,298.8494,83.5885,276.5245,0,U,68699,999,974,.69412274E-3,.23167E-3,0
STARLINK-37334,2026-081B,2026-06-15T21:37:26.888160,15.34391830,.00012576,53.1606,297.6173,60.9051,299.2077,0,U,68700,999,978,.78798574E-3,.26334E-3,0
STARLINK-36955,2026-081C,2026-06-15T15:19:14.444832,15.34427219,.00015852,53.1602,298.8219,55.4323,304.6829,0,U,68701,999,974,.91922324E-3,.30836E-3,0
STARLINK-36275,2026-081D,2026-06-15T15:16:11.619840,15.34446367,.00015101,53.1608,298.8184,81.1264,278.9910,0,U,68702,999,974,.1544701E-2,.52256E-3,0
STARLINK-36271,2026-081E,2026-06-15T15:13:10.315488,15.34386563,.00012134,53.1612,298.7979,79.9079,280.2061,0,U,68703,999,974,.55704295E-3,.18483E-3,0
STARLINK-37356,2026-081F,2026-06-15T15:10:08.704416,15.34413748,.00014481,53.1606,298.7817,75.8394,284.2770,0,U,68704,999,974,.10877158E-2,.36569E-3,0
